ID,Offset,DST Diff,DST Rule,Name,Country,City,Longitude,Latitude
0,0,0,0,(UTC),,(UTC),0,0
1,0,1,0,ABIDJAN,Cote d'lvoire,Abidjan,-4.02775,5.33632
2,4,1,0,ABU DHABI,United Arab Emirates,Abu Dhabi,54.36667,24.46667
3,0,1,0,ACCRA,Ghana,Accra,-0.19631,5.55572
4,3,1,0,ADDIS ABABA,Ethiopia,Addis Ababa,38.7468,9.02274
5,9.5,1,4,ADELAIDE,Australia,Adelaide,138.59996,-34.92862
6,1,1,0,ALGIERS,Algeria,Algiers,3.05861,36.77639
7,5,1,0,ALMATY,Kazakhstan,Almaty,76.91263,43.25506
8,9,1,0,AMBON,Indonesia,Ambon,128.18213,-3.69472
9,3,1,0,AMMAN,Jordan,Amman,35.9325,31.95667
10,1,1,2,AMSTERDAM,Netherlands,Amsterdam,4.89517,52.37022
11,12,1,0,ANADYR,Russia,Anadyr,177.5,64.73333
12,-9,1,1,ANCHORAGE,United States,Anchorage,-149.90028,61.21806
13,3,1,0,ANKARA,Turkey,Ankara,32.85411,39.92077
14,3,1,0,ANTANANARIVO,Madagascar,Antananarivo,47.53161,-18.91487
15,5,1,0,ASHGABAT,Turkmenistan,Ashgabat,58.39154,37.94143
16,3,1,0,ASMARA,Eritrea,Asmara,38.92617,15.33236
17,5,1,0,ASTANA,Kazakhstan,Astana,71.43333,51.16667
18,-4,1,9,ASUNCION,Paraguay,Asuncion,-57.6351,-25.2822
19,2,1,2,ATHENS,Greece,Athens,23.72931,37.98372
20,-5,1,1,ATLANTA,United States,Atlanta,-84.38798,33.749
21,12,1,5,AUCKLAND,New Zealand,Auckland,174.76333,-36.84846
22,-6,1,1,AUSTIN,United States,Austin,-97.74306,30.26715
23,3,1,0,BAGHDAD,Iraq,Baghdad,44.422,33.325
24,4,1,0,BAKU,Azerbaijan,Baku,49.86762,40.43495
25,-5,1,1,BALTIMORE,United States,Baltimore,-76.61219,39.29038
26,0,1,0,BAMAKO,Mali,Bamako,-8,12.65
27,5.5,1,0,BANGALORE,India,Bangalore,77.59456,12.9716
28,7,1,0,BANGKOK,Thailand,Bangkok,100.47623,13.72342
29,1,1,0,BANGUI,Central African Republic,Bangui,18.55598,4.3617
30,1,1,2,BARCELONA,Spain,Barcelona,2.1734,41.38506
31,1,1,2,BARI,Italy,Bari,16.87187,41.11714
32,-4,1,0,BASSE-TERRE,Guadeloupe,Basse-Terre,-61.72566,15.99879
33,8,1,0,BEIJING,China,Beijing,116.40753,39.90403
34,2,1,12,BEIRUT,Lebanon,Beirut,35.49548,33.88863
35,1,1,2,BELGRADE,Serbia,Belgrade,20.46222,44.82056
36,-6,1,0,BELIZE CITY,Belize,Belize City,-88.18665,17.49771
37,1,1,2,BERLIN,Germany,Berlin,13.40495,52.52001
38,1,1,2,BERN,Switzerland,Bern,7.44461,46.94792
39,6,1,0,BISHKEK,Kyegyzstan,Bishkek,74.58788,42.87002
40,0,1,0,BISSAU,Guinea Bissau,Bissau,-15.6,11.86667
41,-5,1,0,BOGOTA,Colombia,Bogota,-74.07583,4.59806
42,1,1,2,BOLOGNA,Italy,Bologna,11.34262,44.49489
43,-5,1,1,BOSTON,United States,Boston,-71.05977,42.35843
44,-3,1,0,BRASILIA,Brazil,Brasilia,-47.89775,-15.79211
45,1,1,2,BRATISLAVA,Slovakia,Bratislava,17.10714,48.14589
46,-4,1,0,BRIDGETOWN,Barbados,Bridgetown,-59.61335,13.09894
47,10,1,0,BRISBANE,Australia,Brisbane,153.02345,-27.47101
48,1,1,2,BRUSSELS,Belgium,Brussels,4.35171,50.85034
49,2,1,2,BUCHAREST,Romania,Bucharest,26.10389,44.4325
50,1,1,2,BUDAPEST,Hungary,Budapest,19.04023,47.49791
51,-3,1,0,BUENOS AIRES,Argentina,Buenos Aires,-58.38159,-34.60372
52,2,1,22,CAIRO,Egypt,Cairo,31.23571,30.04442
53,-7,1,1,CALGARY,Canada,Calgary,-114.0581,51.04532
54,10,1,4,CANBERRA,Australia,Canberra,149.12868,-35.282
55,2,1,0,CAPE TOWN,South Africa,Cape Town,18.42406,-33.92487
56,-4,1,0,CARACAS,Venezuela,Caracas,-66.90206,10.49102
57,0,1,2,CARDIFF,Wales,Cardiff,-3.17909,51.48158
58,0,1,15,CASABLANCA,Morocco,Casablanca,-7.58333,33.53333
59,1,1,2,CATANZARO,Italy,Catanzaro,16.58765,38.90979
60,-3,1,0,CAYENNE,French Guiana,Cayenne,-52.3269,4.9227
61,-5,1,1,CHARLOTTE,United States,Charlotte,-80.84313,35.22709
62,-4,1,0,CHARLOTTE AMALIE,US Virgin Islands,Charlotte Amalie,-64.9307,18.3419
63,12.75,1,23,CHATHAM ISLANDS,New Zealand,Chatham Islands,-176.55934,-43.95593
64,5,1,0,CHELYABINSK,Russia,Chelyabinsk,61.42668,55.17453
65,5.5,1,0,CHENNAI,India,Chennai,80.25082,13.05241
66,-6,1,1,CHICAGO,United States,Chicago,-87.6298,41.87811
67,-6,1,0,CHIHUAHUA,Mexico,Chihuahua,-106.08869,28.63551
68,2,1,2,CHISINAU,Moldova,Chisinau,28.84155,47.02686
69,9,1,0,CHITA,Russia,Chita,113.5,52.03333
70,-5,1,1,CLEVELAND,United States,Cleveland,-81.69541,41.4995
71,5.5,1,0,COLOMBO,Sri Lanka,Colombo,79.86124,6.92708
72,-5,1,1,COLUMBUS,United States,Columbus,-82.99879,39.96118
73,0,1,0,CONAKRY,Guinea,Conakry,-13.67847,9.53703
74,1,1,2,COPENHAGEN,Denmark,Copenhagen,12.56834,55.6761
75,0,1,2,CORK,Ireland,Cork,-8.48632,51.89689
76,1,1,2,CROTONE,Italy,Crotone,17.12711,39.08079
77,0,1,0,DAKAR,Senegal,Dakar,-17.36603,14.7645
78,-6,1,1,DALLAS,United States,Dallas,-96.80045,32.78014
79,3,1,0,DAMASCUS,Syria,Damascus,36.3064,33.5111
80,3,1,0,DAR ES SALAAM,Tanzania,Dar es Salaam,39.26966,-6.82292
81,9.5,1,0,DARWIN,Australia,Darwin,130.84178,-12.46283
82,5.5,1,0,DELHI,India,Delhi,77.22496,28.63531
83,8,1,0,DENPASAR,Indonesia,Denpasar,115.2221,-8.65629
84,-7,1,1,DENVER,United States,Denver,-104.98472,39.73757
85,-5,1,1,DETROIT,United States,Detroit,-83.05674,42.34539
86,6,1,0,DHAKA,Bangladesh,Dhaka,90.40714,23.70992
87,6,1,0,DIEGO GARCIA,UK,Diego Garcia,72.42286,-7.3195
88,3,1,0,DJIBOUTI,Djibouti,Djibouti,43.145,11.588
89,3,1,0,DOHA,Qatar,Doha,51.52248,25.28028
90,1,1,0,DOUALA,Cameroon,Douala,9.70637,4.04749
91,4,1,0,DUBAI,United Arab Emirates,Dubai,55.30749,25.27114
92,0,1,2,DUBLIN,Ireland,Dublin,-6.26031,53.34981
93,5,1,0,DUSHANBE,Tajikistan,Dushanbe,68.78,38.53667
94,-6,1,28,EASTER ISLAND,Chile,Easter Island,-109.41914,-27.14817
95,0,1,2,EDINBURGH,Scotland,Edinburgh,-3.18827,55.95325
96,-7,1,1,EDMONTON,Canada,Edmonton,-113.49093,53.54439
97,-7,1,1,EL PASO,United States,El Paso,-106.49681,31.76996
98,-2,1,0,FERNANDO DE NORONHA,Brazil,Fernando de Noronha,-32.41202,-3.8466
99,1,1,2,FLORENCE,Italy,Florence,11.248,43.77103
100,-4,1,0,FORT-DE-FRANCE,Martinique,Fort-de-France,-61.07256,14.60937
101,1,1,2,FRANKFURT,Germany,Frankfurt,8.68213,50.11092
102,0,1,0,FREETOWN,Sierra Leone,Freetown,-13.16912,8.44183
103,2,1,0,GABORONE,Botswana,Gaborone,25.90874,-24.65411
104,-6,1,0,GALAPAGOS ISLANDS,Ecuador,Galapagos Islands,-90.98207,-0.82928
105,1,1,2,GENEVA,Switzerland,Geneva,6.1423,46.19839
106,1,1,2,GENOA,Italy,Genoa,8.94626,44.40565
107,-4,1,0,GEORGE TOWN,Guyana,George Town,-58.15483,6.80461
108,-2,1,0,GRYTVIKEN,South Georgia,Grytviken,-36.508,-54.2815
109,10,1,0,GUAM,United States,Guam,144.79373,13.4443
110,8,1,0,GUANGZHOU,China,Guangzhou,113.26444,23.12916
111,-6,1,0,GUATEMALA CITY,Guatemala,Guatemala City,-90.53282,14.6248
112,8,1,0,HAIKOU,China,Haikou,110.32886,20.03079
113,-4,1,1,HALIFAX,Canada,Halifax,-63.57501,44.64831
114,1,1,2,HAMBURG,Germany,Hamburg,9.99368,53.55108
115,7,1,0,HANOI,Vietnam,Hanoi,105.85,21.03333
116,2,1,0,HARARE,Zimbabwe,Harare,31.05396,-17.82922
117,-5,1,21,HAVANA,Cuba,Havana,-82.38856,23.1168
118,2,1,2,HELSINKI,Finland,Helsinki,24.94102,60.17332
119,-10,1,0,HILO,United States,Hilo,-155.08234,19.71419
120,7,1,0,HO CHI MINH CITY,Vietnam,Ho Chi Minh City,106.62966,10.8231
121,10,1,4,HOBART,Australia,Hobart,147.32381,-42.8819
122,8,1,0,HONG KONG,Hong Kong,Hong Kong,114.16938,22.2804
123,-10,1,0,HONOLULU,United States,Honolulu,-157.85833,21.30694
124,-6,1,1,HOUSTON,United States,Houston,-95.36939,29.76019
125,7,1,0,HOVD,Mongolia,Hovd,91.64056,48.00417
126,5.5,1,0,HYDERABAD,India,Hyderabad,78.48667,17.38504
127,-5,1,1,INDIANAPOLIS,United States,Indianapolis,-86.15807,39.7684
128,8,1,0,IRKUTSK,Russia,Irkutsk,104.3,52.28333
129,5,1,0,ISLAMABAD,Pakistan,Islamabad,73.05729,33.71447
130,3,1,0,ISTANBUL,Turkey,Istanbul,28.97541,41.00933
131,4,1,0,IZHEVSK,Russia,Izhevsk,53.18333,56.83333
132,7,1,0,JAKARTA,Indonesia,Jakarta,106.8456,-6.20876
133,3,1,0,JEDDAH,Saudi Arabia,Jeddah,39.17278,21.54333
134,2,1,42,JERUSALEM,,Jerusalem,35.21371,31.76832
135,2,1,0,JOHANNESBURG,South Africa,Johannesburg,28.04731,-26.2041
136,4.5,1,0,KABUL,Afghanistan,Kabul,69.1717,34.52846
137,2,1,0,KALININGRAD,Russia,Kaliningrad,20.51667,54.71667
138,3,1,0,KAMPALA,Uganda,Kampala,32.58111,0.31361
139,5,1,0,KARACHI,Pakistan,Karachi,67.00994,24.86146
140,5.75,1,0,KATHMANDU,Nepal,Kathmandu,85.33333,27.7
141,10,1,0,KHABAROVSK,Russia,Khabarovsk,135.08959,48.48692
142,2,1,2,KHARKIV,Ukraine,Kharkiv,36.23038,49.9935
143,2,1,0,KHARTOUM,Sudan,Khartoum,32.53224,15.5501
144,-5,1,1,KINGSTON,Canada,Kingston,-76.48595,44.23117
145,-5,1,0,KINGSTON,Jamaica,Kingston,-76.79214,17.9926
146,1,1,0,KINSHASA,D.R. Congo,Kinshasa,15.31389,-4.33167
147,14,1,0,KIRITIMATI,Kiribati,Kiritimati,-157.3563,1.81694
148,5.5,1,0,KOLKATA,India,Kolkata,88.36389,22.57265
149,7,1,0,KRASNOYARSK,Russia,Krasnoyarsk,92.92568,55.99925
150,8,1,0,KUALA LUMPUR,Malaysia,Kuala Lumpur,101.68685,3.139
151,3,1,0,KUWAIT CITY,Kuwait,Kuwait City,47.97833,29.36972
152,2,1,2,KYIV,Ukraine,Kyiv,30.5234,50.4501
153,-4,1,0,LA PAZ,Bolivia,La Paz,-68.14625,-16.49901
154,1,1,0,LAGOS,Nigeria,Lagos,3.41798,6.44116
155,0,1,14,LAS PALMAS,Canary Islands - Spain,Las Palmas,-15.43606,28.13104
156,-8,1,1,LAS VEGAS,United States,Las Vegas,-115.15912,36.12822
157,-5,1,0,LIMA,Peru,Lima,-77.04279,-12.04637
158,0,1,2,LISBON,Portugal,Lisbon,-9.15079,38.72654
159,1,1,2,LJUBLJANA,Slivenia,Ljubljana,14.50807,46.05645
160,0,1,2,LONDON,UK,London,-0.12549,51.50852
161,-8,1,1,LOS ANGELES,United States,Los Angeles,-118.24368,34.05223
162,-5,1,1,LOUISVILLE,United States,Louisville,-85.75846,38.25266
163,1,1,0,LUANDA,Angola,Luanda,13.23444,-8.83833
164,2,1,0,LUBUMBASHI,D.R. Congo,Lubumbashi,27.47955,-11.66468
165,2,1,0,LUSAKA,Zambia,Lusaka,28.28717,-15.40819
166,1,1,2,LUXEMBOURG,Luxembourg,Luxembourg,6.13148,49.60791
167,2,1,2,LVIV,Ukraine,Lviv,24.02972,49.83968
168,8,1,0,MACAU,China,Macau,113.54387,22.19874
169,1,1,2,MADRID,Spain,Madrid,-3.70379,40.41678
170,11,1,0,MAGADAN,Russia,Magadan,150.8,59.55
171,1,1,0,MALABO,Equaorial Guinea,Malabo,8.78333,3.75
172,5,1,0,MALE,Maldives,Male,73.51091,4.1742
173,3,1,0,MAMOUDZOU,France,Mamoudzou,45.2278,-12.7806
174,-6,1,0,MANAGUA,Nicaragua,Managua,-86.25139,12.13639
175,3,1,0,MANAMA,Bahrain,Manama,50.58333,26.21667
176,8,1,0,MANILA,Philippines,Manila,120.98422,14.59951
177,2,1,0,MAPUTO,Mozambique,Maputo,32.58333,-25.96667
178,-4,1,0,MARIGOT,Saint Martin,Marigot,-63.08368,18.0696
179,-7,1,0,MAZATLAN,Mexico,Mazatlan,-106.41528,23.23611
180,3,1,0,MECCA,Saudi Arabia,Mecca,39.81667,21.41667
181,10,1,4,MELBOURNE,Australia,Melbourne,144.96328,-37.81411
182,-6,1,1,MEMPHIS,United States,Memphis,-90.04898,35.14953
183,1,1,2,MESSINA,Italy,Messina,15.55402,38.19381
184,-6,1,0,MEXICO CITY,Mexico,Mexico City,-99.13321,19.43261
185,-5,1,1,MIAMI,United States,Miami,-80.22644,25.78897
186,-11,1,0,MIDWAY,United States,Midway,-177.37634,28.20884
187,1,1,2,MILAN,Italy,Milan,9.18652,45.46545
188,-6,1,1,MILWAUKEE,United States,Milwaukee,-87.90647,43.0389
189,3,1,0,MINSK,Belarus,Minsk,27.56667,53.9
190,3,1,0,MOGADISHU,Somalia,Mogadishu,45.34597,2.04603
191,0,1,0,MONROVIA,Liberia,Monrovia,-10.79716,6.30077
192,-3,1,0,MONTEVIDEO,Uruguay,Montevideo,-56.18194,-34.88361
193,-5,1,1,MONTREAL,Canada,Montreal,-73.56532,45.50811
194,3,1,0,MOSCOW,Russia,Moscow,37.6173,55.75583
195,5.5,1,0,MUMBAI,India,Mumbai,72.87766,19.07598
196,1,1,2,MUNICH,Germany,Munich,11.58198,48.13513
197,4,1,0,MUSCAT,Oman,Muscat,58.54,23.61
198,1,1,0,N'DJAMENA,Chad,N'Djamena,15.05281,12.11166
199,3,1,0,NAIROBI,Kenya,Nairobi,36.82195,-1.29207
200,1,1,2,NAPLES,Italy,Naples,14.26812,40.85177
201,1,1,2,NATERS,Switzerland,Naters,7.99579,46.32728
202,-5,1,1,NEW YORK,United States,New York,-74.00597,40.71435
203,1,1,0,NIAMEY,Niger,Niamey,2.11252,13.51267
204,0,1,0,NOUAKCHOTT,Mauritania,Nouakchott,-15.97842,18.08406
205,11,1,0,NOUMEA,New Caledonia,Noumea,166.458,-22.2758
206,7,1,0,NOVOKUZNETSK,Russia,Novokuznetsk,87.11667,53.75
207,7,1,0,NOVOSIBIRSK,Russia,Novosibirsk,82.93333,55.01667
208,13,1,0,NUKU'ALOFA,Tonga,Nuku'alofa,-175.2,-21.13333
209,-2,1,31,NUUK,Greenland,Nuuk,-51.72141,64.18362
210,6,1,0,OMSK,Russia,Omsk,73.38333,54.96667
211,9,1,0,OSAKA,Japan,Osaka,135.50217,34.69374
212,1,1,2,OSLO,Norway,Oslo,10.75225,59.91387
213,-5,1,1,OTTAWA,Canada,Ottawa,-75.69324,45.41463
214,0,1,0,OUAGADOUGOU,Burkina Faso,Ouagadougou,-1.53386,12.36464
215,-11,1,0,PAGO PAGO,American Samoa,Pago Pago,-170.70419,-14.27555
216,1,1,2,PALERMO,Italy,Palermo,13.36127,38.11569
217,-5,1,0,PANAMA CITY,Panama,Panama City,-79.51879,8.99427
218,-10,1,0,PAPEETE,Tahiti - French Polynesia,Papeete,-149.55865,-17.53465
219,-3,1,0,PARAMARIBO,Suriname,Paramaribo,-55.16788,5.8232
220,1,1,2,PARIS,France,Paris,2.35222,48.85661
221,5,1,0,PERM,Russia,Perm,56.24889,58.01389
222,8,1,0,PERTH,Australia,Perth,115.85747,-31.953
223,12,1,0,KAMCHATKA,Russia,Petropavlovsk-Kamchatsky,158.65,53.01667
224,-5,1,1,PHILADELPHIA,United States,Philadelphia,-75.16379,39.95233
225,7,1,0,PHNOM PENH,Cambodia,Phnom Penh,104.91745,11.55883
226,-7,1,0,PHOENIX,United States,Phoenix,-112.07404,33.44838
227,1,1,2,PODGORICA,Montenegro,Podgorica,19.26865,42.44257
228,-1,1,2,PONTA DELGADA,Portugal,Ponta Delgada,-25.67495,37.74224
229,4,1,0,PORT LOUIS,Mauritius,Port Louis,57.49638,-20.16528
230,-5,1,1,PORT-AU-PRINCE,Haiti,Port-au-Prince,-72.33641,18.53927
231,-8,1,1,PORTLAND,United States,Portland,-122.67621,45.52345
232,1,1,2,PRAGUE,Czech,Prague,14.4378,50.07554
233,-1,1,0,PRAIA,Cabo Verde,Praia,-23.51267,14.93046
234,9,1,0,PYONGYANG,North Korea,Pyongyang,125.75377,39.03186
235,-5,1,0,QUITO,Ecuador,Quito,-78.49601,-0.20082
236,0,1,15,RABAT,Morocco,Rabat,-6.83272,34.01505
237,-3,1,0,RECIFE,Brazil,Recife,-34.87738,-8.04707
238,-6,1,0,REGINA,Canada,Regina,-104.60667,50.45472
239,0,1,0,REYKJAVIK,Iceland,Reykjavik,-21.89521,64.13534
240,2,1,2,RIGA,Latvia,Riga,24.10519,56.94965
241,-3,1,0,RIO DE JANEIRO,Brazil,Rio de Janeiro,-43.20071,-22.9134
242,3,1,0,RIYADH,Saudi Arabia,Riyadh,46.72417,24.71167
243,1,1,2,ROME,Italy,Rome,12.48252,41.89292
244,-4,1,1,SAINT JOHN,Canada,Saint John,-66.05583,45.27266
245,-4,1,0,SAINT JOHN'S,Antigua and Barbuda,Saint John's,-61.8445,17.11502
246,4,1,0,SAINT-DENIS,Reunion,Saint-Denis,55.4516,-20.88206
247,3,1,0,SAINT-PETERSBURG,Russia,Saint-Petersburg,30.3351,59.93428
248,4,1,0,SAMARA,Russia,Samara,50.16667,53.23333
249,-6,1,1,SAN ANTONIO,United States,San Antonio,-98.49363,29.42412
250,-8,1,1,SAN DIEGO,United States,San Diego,-117.15726,32.71533
251,-8,1,1,SAN FRANCISCO,United States,San Francisco,-122.41942,37.77493
252,-6,1,0,SAN JOSE,Costa Rica,San Jose,-84.08199,9.9268
253,-8,1,1,SAN JOSE,United States,San Jose,-121.89496,37.33939
254,-4,1,0,SAN JUAN,Puerto Rico,San Juan,-66.06919,18.45055
255,1,1,2,SAN MARINO,San Marino,San Marino,12.45778,43.94236
256,-6,1,0,SAN SALVADOR,El Salvador,San Salvador,-89.20181,13.70688
257,3,1,0,SANA'A,Yemen,Sana'a,44.20746,15.35203
258,-4,1,27,SANTIAGO,Chile,Santiago,-70.642,-33.46912
259,-4,1,0,SANTO DOMINGO,Dominican,Santo Domingo,-69.96508,18.49636
260,-3,1,0,SAO PAULO,Brazil,Sao Paulo,-46.63331,-23.55052
261,-8,1,1,SEATTLE,United States,Seattle,-122.33207,47.60621
262,9,1,0,SEOUL,South Korea,Seoul,126.97797,37.56654
263,8,1,0,SHANGHAI,China,Shanghai,121.4737,31.23042
264,8,1,0,SHENZHEN,China,Shenzhen,114.05787,22.5431
265,8,1,0,SINGAPORE,Singapore,Singapore,103.84613,1.29287
266,1,1,2,SKOPJE,Macedonia,Skopje,21.428,41.99735
267,2,1,2,SOFIA,Bulgaria,Sofia,23.32167,42.69784
268,-3.5,1,1,ST. JOHN'S,Canada,St. John's,-52.71448,47.55985
269,1,1,2,STOCKHOLM,Sweden,Stockholm,18.06491,59.32893
270,12,1,19,SUVA,Fiji,Suva,178.4419,-18.1416
271,10,1,4,SYDNEY,Australia,Sydney,151.20699,-33.86749
272,8,1,0,TAIPEI,Taiwan,Taipei,121.53837,25.059
273,2,1,2,TALLINN,Estonia,Tallinn,24.75357,59.43696
274,12,1,0,TARAWA,Kiribati,Tarawa,172.97905,1.32905
275,5,1,0,TASHKENT,Uzbekistan,Tashkent,69.21667,41.26667
276,4,1,0,TBILISI,Georgia,Tbilisi,44.793,41.70998
277,-6,1,0,TEGUCIGALPA,Honduras,Tegucigalpa,-87.21012,14.06857
278,3.5,1,0,TEHRAN,Iran,Tehran,51.42294,35.69622
279,8,1,0,TIANJIN,China,Tianjin,117.20098,39.08416
280,-8,1,1,TIJUANA,Mexico,Tijuana,-117.03825,32.51495
281,9,1,0,TOKYO,Japan,Tokyo,139.69171,35.68949
282,-5,1,1,TORONTO,Canada,Toronto,-79.38318,43.65323
283,2,1,0,TRIPOLI,Libya,Tripoli,13.18751,32.87617
284,1,1,0,TUNIS,Tunisia,Tunis,10.16596,36.81881
285,1,1,2,TURIN,Italy,Turin,7.68568,45.07098
286,5,1,0,UFA,Russia,Ufa,55.96667,54.75
287,8,1,0,ULAANBAATAR,Mongolia,Ulaanbaatar,106.90554,47.92138
288,1,1,2,VADUZ,Liechtenstein,Vaduz,9.5207,47.14137
289,1,1,2,VALLETTA,Malta,Valletta,14.51411,35.89779
290,-8,1,1,VANCOUVER,Canada,Vancouver,-123.11393,49.26123
291,1,1,2,VERONA,Italy,Verona,10.99166,45.43836
292,4,1,0,VICTORIA,Seychelles,Victoria,55.45238,-4.62126
293,1,1,2,VIENNA,Austria,Vienna,16.37382,48.20817
294,2,1,2,VILNIUS,Lithuania,Vilnius,25.27965,54.68715
295,10,1,0,VLADIVOSTOK,Russia,Vladivostok,131.93333,43.16667
296,3,1,0,VOLGOGRAD,Russia,Volgograd,44.51822,48.70902
297,1,1,2,WARSAW,Poland,Warsaw,21.01223,52.22968
298,-5,1,1,WASHINGTON DC,United States,Washington DC,-77.03646,38.90723
299,12,1,5,WELLINGTON,New Zealand,Wellington,174.77624,-41.28646
300,-6,1,1,WINNIPEG,Canada,Winnipeg,-97.13749,49.89975
301,9,1,0,YAKUTSK,Russia,Yakutsk,129.73333,62.03333
302,0,1,0,YAMOUSSOUKRO,Cote d'lvoire,Yamoussoukro,-5.27334,6.80719
303,6.5,1,0,YANGON,Myanmar,Yangon,96.15,16.8
304,1,1,0,YAOUNDE,Cameroon,Yaounde,11.51667,3.86667
305,5,1,0,YEKATERINBURG,Russia,Yekaterinburg,60.6,56.83333
306,4,1,0,YEREVAN,Armenia,Yerevan,44.51667,40.18333
307,11,1,0,YUZHNO-SAKHALINSK,Russia,Yuzhno-Sakhalinsk,142.73333,46.96667
308,1,1,2,ZAGREB,Croatia,Zagreb,15.9779,45.81303
309,1,1,2,ZURICH,Switzerland,Zurich,8.53918,47.36865
310,8.75,1,0,EUCLA,Australia,Eucla,128.889304,-31.677126
311,10.5,0.5,18,LORD HOWE ISLAND,Australia,Lord Howe Island,159.070353,-31.531296
312,11,1,4,NORFOLK ISLAND,Australia,Norfolk Island,167.95,-29.033333
313,-12,1,0,BAKER ISLAND,United States,Baker Island,-176.476908,0.193627
314,-9.5,1,0,MARQUESAS ISLANDS,France,Marquesas Islands,-139.039434,-9.802781